{"type": "FeatureCollection", "features": [ {"type": "Feature", "properties": {"norad_id": 40269, "name": "IRNSS-1C", "group": "gnss", "lat": 5.166006193388881, "lon": -146.72289376205453, "alt_km": 35820.842749652045, "timestamp": "2025-12-01T03:58:50.203765+00:00", "meta": {"OBJECT_NAME": "IRNSS-1C", "OBJECT_ID": "2014-061A", "EPOCH": "2025-11-30T19:22:31.219392", "MEAN_MOTION": 1.00269635, "ECCENTRICITY": 0.0017873, "INCLINATION": 6.0106, "RA_OF_ASC_NODE": 92.8591, "ARG_OF_PERICENTER": 2.9541, "MEAN_ANOMALY": 347.7358, "EPHEMERIS_TYPE": 0, "CLASSIFICATION_TYPE": "U", "NORAD_CAT_ID": 40269, "ELEMENT_SET_NO": 999, "REV_AT_EPOCH": 4069, "BSTAR": 0, "MEAN_MOTION_DOT": -1.38e-06, "MEAN_MOTION_DDOT": 0, "GROUP": "gnss"}, "tle": {"line1": "1 40269U 14061A   25334.80730578 -.00000138  00000+0  00000+0 0  9999", "line2": "2 40269   6.0106  92.8591 0017873   2.9541 347.7358  1.00269635 40695"}}, "geometry": {"type": "Point", "coordinates": [-146.72289376205453, 5.166006193388881]}}, {"type": "Feature", "properties": {"norad_id": 41028, "name": "GSAT-15 (GAGAN/PRN 139)", "group": "gnss", "lat": -0.022083258696632246, "lon": -136.54630901748294, "alt_km": 35773.58219697008, "timestamp": "2025-12-01T03:58:50.203812+00:00", "meta": {"OBJECT_NAME": "GSAT-15 (GAGAN/PRN 139)", "OBJECT_ID": "2015-065A", "EPOCH": "2025-11-30T17:01:51.593088", "MEAN_MOTION": 1.0027061, "ECCENTRICITY": 0.0003089, "INCLINATION": 0.0129, "RA_OF_ASC_NODE": 5.3091, "ARG_OF_PERICENTER": 228.1654, "MEAN_ANOMALY": 185.3237, "EPHEMERIS_TYPE": 0, "CLASSIFICATION_TYPE": "U", "NORAD_CAT_ID": 41028, "ELEMENT_SET_NO": 999, "REV_AT_EPOCH": 3680, "BSTAR": 0, "MEAN_MOTION_DOT": -2.36e-06, "MEAN_MOTION_DDOT": 0, "GROUP": "gnss"}, "tle": {"line1": "1 41028U 15065A   25334.70962492 -.00000236  00000+0  00000+0 0  9998", "line2": "2 41028   0.0129   5.3091 0003089 228.1654 185.3237  1.00270610 36808"}}, "geometry": {"type": "Point", "coordinates": [-136.54630901748294, -0.022083258696632246]}}, {"type": "Feature", "properties": {"norad_id": 41241, "name": "IRNSS-1E", "group": "gnss", "lat": 0.5115921621476875, "lon": -118.19652920394276, "alt_km": 35692.19768587586, "timestamp": "2025-12-01T03:58:50.203832+00:00", "meta": {"OBJECT_NAME": "IRNSS-1E", "OBJECT_ID": "2016-003A", "EPOCH": "2025-11-30T16:05:08.670336", "MEAN_MOTION": 1.00279055, "ECCENTRICITY": 0.002194, "INCLINATION": 32.7992, "RA_OF_ASC_NODE": 62.629, "ARG_OF_PERICENTER": 186.3992, "MEAN_ANOMALY": 173.7167, "EPHEMERIS_TYPE": 0, "CLASSIFICATION_TYPE": "U", "NORAD_CAT_ID": 41241, "ELEMENT_SET_NO": 999, "REV_AT_EPOCH": 3609, "BSTAR": 0, "MEAN_MOTION_DOT": -2.92e-06, "MEAN_MOTION_DDOT": 0, "GROUP": "gnss"}, "tle": {"line1": "1 41241U 16003A   25334.67023924 -.00000292  00000+0  00000+0 0  9994", "line2": "2 41241  32.7992  62.6290 0021940 186.3992 173.7167  1.00279055 36094"}}, "geometry": {"type": "Point", "coordinates": [-118.19652920394276, 0.5115921621476875]}}, {"type": "Feature", "properties": {"norad_id": 41384, "name": "IRNSS-1F", "group": "gnss", "lat": 4.215286705101152, "lon": 162.09207268438047, "alt_km": 35831.71886759118, "timestamp": "2025-12-01T03:58:50.203848+00:00", "meta": {"OBJECT_NAME": "IRNSS-1F", "OBJECT_ID": "2016-015A", "EPOCH": "2025-11-30T13:59:51.142848", "MEAN_MOTION": 1.00266329, "ECCENTRICITY": 0.0022355, "INCLINATION": 4.8498, "RA_OF_ASC_NODE": 101.6022, "ARG_OF_PERICENTER": 179.2049, "MEAN_ANOMALY": 31.3133, "EPHEMERIS_TYPE": 0, "CLASSIFICATION_TYPE": "U", "NORAD_CAT_ID": 41384, "ELEMENT_SET_NO": 999, "REV_AT_EPOCH": 3567, "BSTAR": 0, "MEAN_MOTION_DOT": 1.81e-06, "MEAN_MOTION_DDOT": 0, "GROUP": "gnss"}, "tle": {"line1": "1 41384U 16015A   25334.58323082  .00000181  00000+0  00000+0 0  9999", "line2": "2 41384   4.8498 101.6022 0022355 179.2049  31.3133  1.00266329 35670"}}, "geometry": {"type": "Point", "coordinates": [162.09207268438047, 4.215286705101152]}}, {"type": "Feature", "properties": {"norad_id": 41469, "name": "IRNSS-1G", "group": "gnss", "lat": 1.8093392418828202, "lon": -100.4357711348447, "alt_km": 35791.75306506768, "timestamp": "2025-12-01T03:58:50.203862+00:00", "meta": {"OBJECT_NAME": "IRNSS-1G", "OBJECT_ID": "2016-027A", "EPOCH": "2025-11-30T19:35:44.952000", "MEAN_MOTION": 1.00267404, "ECCENTRICITY": 0.0001438, "INCLINATION": 4.7073, "RA_OF_ASC_NODE": 102.396, "ARG_OF_PERICENTER": 17.5397, "MEAN_ANOMALY": 13.4616, "EPHEMERIS_TYPE": 0, "CLASSIFICATION_TYPE": "U", "NORAD_CAT_ID": 41469, "ELEMENT_SET_NO": 999, "REV_AT_EPOCH": 3519, "BSTAR": 0, "MEAN_MOTION_DOT": -3.11e-06, "MEAN_MOTION_DDOT": 0, "GROUP": "gnss"}, "tle": {"line1": "1 41469U 16027A   25334.81649250 -.00000311  00000+0  00000+0 0  9996", "line2": "2 41469   4.7073 102.3960 0001438  17.5397  13.4616  1.00267404 35199"}}, "geometry": {"type": "Point", "coordinates": [-100.4357711348447, 1.8093392418828202]}}, {"type": "Feature", "properties": {"norad_id": 41589, "name": "EUTELSAT 117 WEST B (WAAS/PRN 131)", "group": "gnss", "lat": -0.010895347461181551, "lon": 12.964606632161294, "alt_km": 35787.98432009536, "timestamp": "2025-12-01T03:58:50.203879+00:00", "meta": {"OBJECT_NAME": "EUTELSAT 117 WEST B (WAAS/PRN 131)", "OBJECT_ID": "2016-038B", "EPOCH": "2025-11-30T16:42:42.574176", "MEAN_MOTION": 1.00266727, "ECCENTRICITY": 1.89e-05, "INCLINATION": 0.0076, "RA_OF_ASC_NODE": 144.1173, "ARG_OF_PERICENTER": 357.9826, "MEAN_ANOMALY": 61.4104, "EPHEMERIS_TYPE": 0, "CLASSIFICATION_TYPE": "U", "NORAD_CAT_ID": 41589, "ELEMENT_SET_NO": 999, "REV_AT_EPOCH": 3467, "BSTAR": 0, "MEAN_MOTION_DOT": 1.1e-07, "MEAN_MOTION_DDOT": 0, "GROUP": "gnss"}, "tle": {"line1": "1 41589U 16038B   25334.69632609  .00000011  00000+0  00000+0 0  9993", "line2": "2 41589   0.0076 144.1173 0000189 357.9826  61.4104  1.00266727 34678"}}, "geometry": {"type": "Point", "coordinates": [12.964606632161294, -0.010895347461181551]}}, {"type": "Feature", "properties": {"norad_id": 42709, "name": "SES-15 (WAAS/PRN 133)", "group": "gnss", "lat": 0.022050834252470588, "lon": 0.8060477691999113, "alt_km": 35787.876402005735, "timestamp": "2025-12-01T03:58:50.203918+00:00", "meta": {"OBJECT_NAME": "SES-15 (WAAS/PRN 133)", "OBJECT_ID": "2017-026A", "EPOCH": "2025-11-30T16:39:12.908160", "MEAN_MOTION": 1.00274329, "ECCENTRICITY": 6.92e-05, "INCLINATION": 0.0195, "RA_OF_ASC_NODE": 336.344, "ARG_OF_PERICENTER": 233.5968, "MEAN_ANOMALY": 340.5165, "EPHEMERIS_TYPE": 0, "CLASSIFICATION_TYPE": "U", "NORAD_CAT_ID": 42709, "ELEMENT_SET_NO": 999, "REV_AT_EPOCH": 544, "BSTAR": 0, "MEAN_MOTION_DOT": 8.1e-07, "MEAN_MOTION_DDOT": 0, "GROUP": "gnss"}, "tle": {"line1": "1 42709U 17026A   25334.69389940  .00000081  00000+0  00000+0 0  9990", "line2": "2 42709   0.0195 336.3440 0000692 233.5968 340.5165  1.00274329  5440"}}, "geometry": {"type": "Point", "coordinates": [0.8060477691999113, 0.022050834252470588]}}, {"type": "Feature", "properties": {"norad_id": 42738, "name": "QZS-2 (QZSS/PRN 194)", "group": "gnss", "lat": 20.221609453200372, "lon": -87.69286854286695, "alt_km": 37354.4934599267, "timestamp": "2025-12-01T03:58:50.203931+00:00", "meta": {"OBJECT_NAME": "QZS-2 (QZSS/PRN 194)", "OBJECT_ID": "2017-028A", "EPOCH": "2025-11-29T15:03:38.649888", "MEAN_MOTION": 1.0028652, "ECCENTRICITY": 0.07597264, "INCLINATION": 39.7358, "RA_OF_ASC_NODE": 246.0747, "ARG_OF_PERICENTER": 269.3342, "MEAN_ANOMALY": 280.5316, "EPHEMERIS_TYPE": 0, "CLASSIFICATION_TYPE": "U", "NORAD_CAT_ID": 42738, "ELEMENT_SET_NO": 999, "REV_AT_EPOCH": 562, "BSTAR": 0, "MEAN_MOTION_DOT": -1.6e-06, "MEAN_MOTION_DDOT": 0, "GROUP": "gnss"}, "tle": {"line1": "1 42738U 17028A   25333.62753067 -.00000160  00000+0  00000+0 0  9990", "line2": "2 42738  39.7358 246.0747 0759726 269.3342 280.5316  1.00286520  5628"}}, "geometry": {"type": "Point", "coordinates": [-87.69286854286695, 20.221609453200372]}}, {"type": "Feature", "properties": {"norad_id": 42917, "name": "QZS-3 (QZSS/PRN 199)", "group": "gnss", "lat": 0.022271605975983343, "lon": -103.08204398195383, "alt_km": 35781.070809231634, "timestamp": "2025-12-01T03:58:50.203954+00:00", "meta": {"OBJECT_NAME": "QZS-3 (QZSS/PRN 199)", "OBJECT_ID": "2017-048A", "EPOCH": "2025-11-30T20:20:38.732928", "MEAN_MOTION": 1.00273029, "ECCENTRICITY": 0.0001175, "INCLINATION": 0.0776, "RA_OF_ASC_NODE": 226.957, "ARG_OF_PERICENTER": 48.6113, "MEAN_ANOMALY": 226.5215, "EPHEMERIS_TYPE": 0, "CLASSIFICATION_TYPE": "U", "NORAD_CAT_ID": 42917, "ELEMENT_SET_NO": 999, "REV_AT_EPOCH": 3027, "BSTAR": 0, "MEAN_MOTION_DOT": -3.26e-06, "MEAN_MOTION_DDOT": 0, "GROUP": "gnss"}, "tle": {"line1": "1 42917U 17048A   25334.84767052 -.00000326  00000+0  00000+0 0  9999", "line2": "2 42917   0.0776 226.9570 0001175  48.6113 226.5215  1.00273029 30272"}}, "geometry": {"type": "Point", "coordinates": [-103.08204398195383, 0.022271605975983343]}}, {"type": "Feature", "properties": {"norad_id": 42965, "name": "QZS-4 (QZSS/PRN 195)", "group": "gnss", "lat": -38.998206101891846, "lon": -87.25089140102772, "alt_km": 32669.050829174095, "timestamp": "2025-12-01T03:58:50.203972+00:00", "meta": {"OBJECT_NAME": "QZS-4 (QZSS/PRN 195)", "OBJECT_ID": "2017-062A", "EPOCH": "2025-11-30T08:44:38.860224", "MEAN_MOTION": 1.00255929, "ECCENTRICITY": 0.07523208, "INCLINATION": 40.233, "RA_OF_ASC_NODE": 346.0314, "ARG_OF_PERICENTER": 271.1913, "MEAN_ANOMALY": 80.7722, "EPHEMERIS_TYPE": 0, "CLASSIFICATION_TYPE": "U", "NORAD_CAT_ID": 42965, "ELEMENT_SET_NO": 999, "REV_AT_EPOCH": 2981, "BSTAR": 0, "MEAN_MOTION_DOT": -3.04e-06, "MEAN_MOTION_DDOT": 0, "GROUP": "gnss"}, "tle": {"line1": "1 42965U 17062A   25334.36433866 -.00000304  00000+0  00000+0 0  9994", "line2": "2 42965  40.2330 346.0314 0752320 271.1913  80.7722  1.00255929 29813"}}, "geometry": {"type": "Point", "coordinates": [-87.25089140102772, -38.998206101891846]}}]}